STARLINK-1645_new
1 17622C 21012C   21326.15433803  .00003910  00000-0  26191-3 0  3267
2 17622  53.0548 273.0377 0002153  56.6138  20.6362 15.06402969    19
STARLINK-1645_old
1 27622C 21012C   21325.15901963  .00006830  00000-0  45769-3 0  3258
2 27622  53.0545 277.5055 0002082  55.2110  21.4173 15.06385880    15
